{"spkid": "20620082", "covariance": {"epoch": "2458751.5", "elements": [{"title": "eccentricity", "value": ".7177297849072498", "units": null, "sigma": 2.85111220479898e-08, "name": "e", "label": "e"}, {"sigma": 5.88772245844426e-08, "name": "q", "units": "au", "value": ".5906798505208565", "title": "perihelion distance", "label": "q"}, {"units": "TDB", "title": "time of perihelion passage", "value": "2459008.494964091948", "sigma": 4.81321658431315e-06, "name": "tp", "label": "tp"}, {"title": "longitude of the ascending node", "value": "322.8212399217018", "units": "deg", "sigma": 1.76624184369489e-05, "name": "om", "label": "node"}, {"label": "peri", "units": "deg", "title": "argument of perihelion", "value": "260.4658092624274", "name": "w", "sigma": 1.75910321568595e-05}, {"label": "i", "name": "i", "sigma": 6.52326099084777e-06, "units": "deg", "value": "4.426809327613191", "title": "inclination"}], "data": [["8.128840804353723E-16", "-1.677260652980911E-15", "-3.24816285640825E-14", "-1.553801718708523E-13", "-2.238674638091342E-14", "-7.348653550908696E-14", "-2.037510670063142E-22"], ["-1.677260652980911E-15", "3.466527574766888E-15", "6.700055788066596E-14", "3.250426088268307E-13", "4.116452007322289E-14", "1.535632269236067E-13", "3.051932275592242E-22"], ["-3.24816285640825E-14", "6.700055788066596E-14", "2.316705388750713E-11", "-1.547086443903305E-11", "2.350740366712071E-11", "-4.816697979796418E-12", "-1.336241216676075E-19"], ["-1.553801718708523E-13", "3.250426088268307E-13", "-1.547086443903305E-11", "3.119610250418735E-10", "-2.906448158195262E-10", "1.825124961433682E-11", "7.530213132627329E-20"], ["-2.238674638091342E-14", "4.116452007322289E-14", "2.350740366712071E-11", "-2.906448158195262E-10", "3.094444123436645E-10", "-7.041230740560777E-12", "-2.267776238500092E-20"], ["-7.348653550908696E-14", "1.535632269236067E-13", "-4.816697979796418E-12", "1.825124961433682E-11", "-7.041230740560777E-12", "4.255293395471621E-11", "1.865534998023935E-20"], ["-2.037510670063142E-22", "3.051932275592242E-22", "-1.336241216676075E-19", "7.530213132627329E-20", "-2.267776238500092E-20", "1.865534998023935E-20", "3.285559487540876E-27"]], "labels": ["e", "q", "tp", "node", "peri", "i", "A2"]}, "elements": [{"sigma": "2.9099E-8", "name": "e", "units": null, "value": ".7158556195188267", "title": "eccentricity", "label": "e"}, {"label": "a", "sigma": "1.8742E-8", "name": "a", "title": "semi-major axis", "value": "2.092539708738188", "units": "au"}, {"sigma": "6.1121E-8", "name": "q", "title": "perihelion distance", "value": ".5945833991716672", "units": "au", "label": "q"}, {"name": "i", "sigma": "6.5299E-6", "value": "4.425544776356047", "title": "inclination; angle with respect to x-y ecliptic plane", "units": "deg", "label": "i"}, {"title": "longitude of the ascending node", "value": "322.4501639799886", "units": "deg", "sigma": "1.7609E-5", "name": "om", "label": "node"}, {"name": "w", "sigma": "1.755E-5", "units": "deg", "value": "260.7655618230629", "title": "argument of perihelion", "label": "peri"}, {"label": "M", "sigma": "3.6864E-6", "name": "ma", "title": "mean anomaly", "value": "354.2107066623262", "units": "deg"}, {"title": "time of perihelion passage", "value": "2461218.280011747783", "units": "TDB", "sigma": "1.156E-5", "name": "tp", "label": "tp"}, {"name": "per", "sigma": "1.4854E-5", "units": "d", "value": "1105.627898926587", "title": "sidereal orbital period", "label": "period"}, {"label": "n", "title": "mean motion", "value": ".3256068342247067", "units": "deg/d", "name": "n", "sigma": "4.3745E-9"}, {"sigma": "3.2159E-8", "name": "ad", "units": "au", "value": "3.590496018304709", "title": "aphelion distance", "label": "Q"}], "epoch": "2461200.5"}